NORAD_CAT_ID,OBJECT_NAME,OBJECT_TYPE,EPOCH,MEAN_MOTION,ECCENTRICITY,INCLINATION,RA_OF_ASC_NODE,ARG_OF_PERICENTER,MEAN_ANOMALY,BSTAR,MEAN_MOTION_DOT,MEAN_MOTION_DDOT,TLE_LINE0,TLE_LINE1,TLE_LINE2,SEMIMAJOR_AXIS,PERIOD,APOGEE,PERIGEE,DECAYED
53252.0,STARLINK-4132,PAYLOAD,2023-06-26 09:32:39,15.08833447,9.56e-05,53.2181,306.1968,93.5038,266.6064,-2.7881e-05,-7.31e-06,0.0,0 STARLINK-4132,1 53252U 22086L   23177.39768090 -.00000731  00000-0 -27881-4 0  9990,2 53252  53.2181 306.1968 0000956  93.5038 266.6064 15.08833447 51830,6917.9,95.438,540.427,539.104,0.0
53252.0,STARLINK-4132,PAYLOAD,2023-06-27 17:20:21,15.08843313,9.86e-05,53.2184,300.2491,87.4948,272.6157,5.4138e-05,5.74e-06,0.0,0 STARLINK-4132,1 53252U 22086L   23178.72247636  .00000574  00000-0  54138-4 0  9994,2 53252  53.2184 300.2491 0000986  87.4948 272.6157 15.08843313 52030,6917.87,95.437,540.417,539.053,0.0
53252.0,STARLINK-4132,PAYLOAD,2023-06-29 07:29:37,15.08837567,9.78e-05,53.2182,293.1139,76.2025,283.9076,8.6343e-05,1.087e-05,0.0,0 STARLINK-4132,1 53252U 22086L   23180.31224013  .00001087  00000-0  86343-4 0  9999,2 53252  53.2182 293.1139 0000978  76.2025 283.9076 15.08837567 52275,6917.888,95.438,540.429,539.076,0.0
53252.0,STARLINK-4132,PAYLOAD,2023-06-30 16:52:41,15.08859958,0.0001258,53.2179,286.8691,96.5871,263.5264,-1.546e-05,-5.34e-06,0.0,0 STARLINK-4132,1 53252U 22086L   23181.70326353 -.00000534  00000-0 -15460-4 0  9993,2 53252  53.2179 286.8691 0001258  96.5871 263.5264 15.08859958 52483,6917.819,95.436,540.555,538.814,0.0
53252.0,STARLINK-4132,PAYLOAD,2023-07-01 16:43:30,15.08836268,9.24e-05,53.2177,282.4075,96.0845,264.0252,-1.3598e-05,-5.04e-06,0.0,0 STARLINK-4132,1 53252U 22086L   23182.69688020 -.00000504  00000-0 -13598-4 0  9991,2 53252  53.2177 282.4075 0000924  96.0845 264.0252 15.08836268 52633,6917.892,95.438,540.396,539.118,0.0
53252.0,STARLINK-4132,PAYLOAD,2023-07-02 22:55:49,15.08845529,8.88e-05,53.2173,276.7583,91.1728,268.9366,2.3436e-05,8.5e-07,0.0,0 STARLINK-4132,1 53252U 22086L   23183.95543488  .00000085  00000-0  23436-4 0  9993,2 53252  53.2173 276.7583 0000888  91.1728 268.9366 15.08845529 52824,6917.863,95.437,540.343,539.114,0.0
53252.0,STARLINK-4132,PAYLOAD,2023-07-04 11:29:42,15.08834846,0.000105,53.2177,269.9206,106.719,253.3918,-1.6346e-05,-5.48e-06,0.0,0 STARLINK-4132,1 53252U 22086L   23185.47896740 -.00000548  00000-0 -16346-4 0  9992,2 53252  53.2177 269.9206 0001050 106.7190 253.3918 15.08834846 53059,6917.896,95.438,540.488,539.035,0.0
53252.0,STARLINK-4132,PAYLOAD,2023-07-04 22:37:24,15.08841774,8.43e-05,53.2169,267.8368,90.7858,269.3231,2.6442e-05,1.33e-06,0.0,0 STARLINK-4132,1 53252U 22086L   23185.94264200  .00000133  00000-0  26442-4 0  9990,2 53252  53.2169 267.8368 0000843  90.7858 269.3231 15.08841774 53129,6917.875,95.437,540.323,539.157,0.0
53252.0,STARLINK-4132,PAYLOAD,2023-07-06 11:11:16,15.08844134,9.05e-05,53.2172,260.9984,84.3167,275.7928,0.00012211,1.656e-05,0.0,0 STARLINK-4132,1 53252U 22086L   23187.46616196  .00001656  00000-0  12211-3 0  9993,2 53252  53.2172 260.9984 0000905  84.3167 275.7928 15.08844134 53354,6917.868,95.437,540.359,539.107,0.0
53252.0,STARLINK-4132,PAYLOAD,2023-07-07 14:12:49,15.08849874,9.07e-05,53.2169,255.9425,87.5135,272.5961,0.00015293,2.148e-05,0.0,0 STARLINK-4132,1 53252U 22086L   23188.59223670  .00002148  00000-0  15293-3 0  9999,2 53252  53.2169 255.9425 0000907  87.5135 272.5961 15.08849874 53523,6917.85,95.437,540.343,539.088,0.0
53252.0,STARLINK-4132,PAYLOAD,2023-07-07 22:09:45,15.08838237,8.76e-05,53.2168,254.4557,90.0664,270.0429,0.00018822,2.709e-05,0.0,0 STARLINK-4132,1 53252U 22086L   23188.92344317  .00002709  00000-0  18822-3 0  9992,2 53252  53.2168 254.4557 0000876  90.0664 270.0429 15.08838237 53571,6917.886,95.438,540.357,539.145,0.0
53252.0,STARLINK-4132,PAYLOAD,2023-07-09 04:22:05,15.08830449,8.85e-05,53.2177,248.8033,109.5432,250.5656,-2.3317e-05,-6.59e-06,0.0,0 STARLINK-4132,1 53252U 22086L   23190.18201050 -.00000659  00000-0 -23317-4 0  9999,2 53252  53.2177 248.8033 0000885 109.5432 250.5656 15.08830449 53769,6917.91,95.438,540.387,539.162,0.0
53252.0,STARLINK-4132,PAYLOAD,2023-07-09 13:54:23,15.0886067,0.000113,53.2167,247.023,115.0676,245.0434,-0.00038795,-6.46e-05,0.0,0 STARLINK-4132,1 53252U 22086L   23190.57944271 -.00006460  00000-0 -38795-3 0  9992,2 53252  53.2167 247.0230 0001130 115.0676 245.0434 15.08860670 53823,6917.817,95.436,540.464,538.9,0.0
53252.0,STARLINK-4132,PAYLOAD,2023-07-10 04:12:52,15.08835725,8.64e-05,53.2166,244.3456,91.956,268.1531,6.3663e-05,7.26e-06,0.0,0 STARLINK-4132,1 53252U 22086L   23191.17560810  .00000726  00000-0  63663-4 0  9992,2 53252  53.2166 244.3456 0000864  91.9560 268.1531 15.08835725 53916,6917.893,95.438,540.356,539.161,0.0
53252.0,STARLINK-4132,PAYLOAD,2023-07-11 13:35:58,15.08839581,8.91e-05,53.2162,238.1013,85.6492,274.4602,0.00013778,1.906e-05,0.0,0 STARLINK-4132,1 53252U 22086L   23192.56664753  .00001906  00000-0  13778-3 0  9999,2 53252  53.2162 238.1013 0000891  85.6492 274.4602 15.08839581 54123,6917.882,95.438,540.363,539.13,0.0
53252.0,STARLINK-4132,PAYLOAD,2023-07-11 19:57:31,15.08836849,8.91e-05,53.216,236.9119,85.5864,274.523,8.8711e-05,1.124e-05,0.0,0 STARLINK-4132,1 53252U 22086L   23192.83161144  .00001124  00000-0  88711-4 0  9997,2 53252  53.2160 236.9119 0000891  85.5864 274.5230 15.08836849 54162,6917.89,95.438,540.371,539.139,0.0
53252.0,STARLINK-4132,PAYLOAD,2023-07-13 10:06:46,15.08843082,9.82e-05,53.2165,229.7749,93.0931,267.0174,7.7739e-05,9.5e-06,0.0,0 STARLINK-4132,1 53252U 22086L   23194.42136916  .00000950  00000-0  77739-4 0  9997,2 53252  53.2165 229.7749 0000982  93.0931 267.0174 15.08843082 54404,6917.871,95.437,540.415,539.057,0.0
53252.0,STARLINK-4132,PAYLOAD,2023-07-13 19:39:05,15.0883855,8.93e-05,53.2157,227.9902,93.8635,266.2459,2.4281e-05,9.9e-07,0.0,0 STARLINK-4132,1 53252U 22086L   23194.81881336  .00000099  00000-0  24281-4 0  9991,2 53252  53.2157 227.9902 0000893  93.8635 266.2459 15.08838550 54463,6917.885,95.438,540.368,539.132,0.0
53252.0,STARLINK-4132,PAYLOAD,2023-07-14 08:22:11,15.08800527,0.0001127,53.2159,225.6102,90.4726,269.6395,0.00056565,8.716e-05,0.0,0 STARLINK-4132,1 53252U 22086L   23195.34874582  .00008716  00000-0  56565-3 0  9998,2 53252  53.2159 225.6102 0001127  90.4726 269.6395 15.08800527 54545,6918.001,95.44,540.646,539.086,0.0
53252.0,STARLINK-4132,PAYLOAD,2023-07-14 11:32:56,15.0884013,9.83e-05,53.2164,225.0166,81.9559,278.1545,6.2001e-05,6.99e-06,0.0,0 STARLINK-4132,1 53252U 22086L   23195.48121364  .00000699  00000-0  62001-4 0  9991,2 53252  53.2164 225.0166 0000983  81.9559 278.1545 15.08840130 54561,6917.88,95.438,540.425,539.065,0.0
53252.0,STARLINK-4132,PAYLOAD,2023-07-15 08:12:57,15.08849756,0.0001005,53.2167,221.1502,84.1183,275.9923,8.548e-05,1.073e-05,0.0,0 STARLINK-4132,1 53252U 22086L   23196.34232711  .00001073  00000-0  85480-4 0  9999,2 53252  53.2167 221.1502 0001005  84.1183 275.9923 15.08849756 54691,6917.851,95.437,540.411,539.02,0.0
53252.0,STARLINK-4132,PAYLOAD,2023-07-16 08:03:44,15.08835992,0.0001087,53.2165,216.6905,76.7138,283.3975,4.002e-05,3.49e-06,0.0,0 STARLINK-4132,1 53252U 22086L   23197.33593679  .00000349  00000-0  40020-4 0  9998,2 53252  53.2165 216.6905 0001087  76.7138 283.3975 15.08835992 54846,6917.893,95.438,540.51,539.006,0.0
53252.0,STARLINK-4132,PAYLOAD,2023-07-17 17:26:50,15.08841369,0.0001013,53.216,210.4456,79.5905,280.5201,1.3537e-05,-7.2e-07,0.0,0 STARLINK-4132,1 53252U 22086L   23198.72697419 -.00000072  00000-0  13537-4 0  9996,2 53252  53.2160 210.4456 0001013  79.5905 280.5201 15.08841369 55056,6917.876,95.437,540.442,539.04,0.0
53252.0,STARLINK-4132,PAYLOAD,2023-07-19 01:14:33,15.088365,0.0001031,53.2163,204.4987,79.8681,280.2428,4.3248e-05,4.01e-06,0.0,0 STARLINK-4132,1 53252U 22086L   23200.05177824  .00000401  00000-0  43248-4 0  9996,2 53252  53.2163 204.4987 0001031  79.8681 280.2428 15.08836500 55256,6917.891,95.438,540.469,539.043,0.0
53252.0,STARLINK-4132,PAYLOAD,2023-07-21 00:56:07,15.08839952,0.0001042,53.2164,195.5774,84.2764,275.8347,7.2628e-05,8.68e-06,0.0,0 STARLINK-4132,1 53252U 22086L   23202.03897716  .00000868  00000-0  72628-4 0  9996,2 53252  53.2164 195.5774 0001042  84.2764 275.8347 15.08839952 55552,6917.881,95.438,540.466,539.025,0.0
53252.0,STARLINK-4132,PAYLOAD,2023-07-24 08:25:24,15.08836285,0.0001036,53.2167,180.7089,96.9496,263.1614,-1.7556e-05,-5.67e-06,0.0,0 STARLINK-4132,1 53252U 22086L   23205.35098192 -.00000567  00000-0 -17556-4 0  9992,2 53252  53.2167 180.7089 0001036  96.9496 263.1614 15.08836285 56256,6917.892,95.438,540.473,539.04,0.0
53252.0,STARLINK-4132,PAYLOAD,2023-07-25 08:16:12,15.08836096,0.0001361,53.2172,176.2482,83.9021,276.2127,1.9463e-05,2.2e-07,0.0,0 STARLINK-4132,1 53252U 22086L   23206.34458465  .00000022  00000-0  19463-4 0  9998,2 53252  53.2172 176.2482 0001361  83.9021 276.2127 15.08836096 56401,6917.892,95.438,540.699,538.816,0.0
53252.0,STARLINK-4132,PAYLOAD,2023-07-26 06:31:36,15.08758393,7.76e-05,53.2147,172.087,51.2979,308.8082,0.001028,0.00016074,0.0,0 STARLINK-4132,1 53252U 22086L   23207.27195405  .00016074  00000-0  10280-2 0  9993,2 53252  53.2147 172.0870 0000776  51.2979 308.8082 15.08758393 56547,6918.13,95.443,540.532,539.458,0.0
53252.0,STARLINK-4132,PAYLOAD,2023-07-26 16:03:55,15.08836396,9.6e-05,53.2162,170.3018,95.9346,264.1756,5.816e-05,6.38e-06,0.0,0 STARLINK-4132,1 53252U 22086L   23207.66938690  .00000638  00000-0  58160-4 0  9997,2 53252  53.2162 170.3018 0000960  95.9346 264.1756 15.08836396 56404,6917.891,95.438,540.421,539.092,0.0
53252.0,STARLINK-4132,PAYLOAD,2023-07-27 06:22:22,15.08843191,9.98e-05,53.2164,167.6256,96.59,263.5206,0.00014314,1.991e-05,0.0,0 STARLINK-4132,1 53252U 22086L   23208.26554010  .00001991  00000-0  14314-3 0  9999,2 53252  53.2164 167.6256 0000998  96.5900 263.5206 15.08843191 56496,6917.871,95.437,540.426,539.045,0.0
